DUPLEX                  
1 66906U 98067XS  26018.63368048  .00023204  00000+0  37633-3 0  9997
2 66906  51.6322 319.1567 0002060  29.5858 330.5248 15.52643579  7341
1998-067XT              
1 66907U 98067XT  26018.63700023  .00073915  00000+0  10065-2 0  9994
2 66907  51.6306 318.4294 0003525  81.7218 278.4173 15.56868945  7358
1998-067XU              
1 66908U 98067XU  26018.12268348  .00071482  00000+0  97920-3 0  9991
2 66908  51.6306 320.9926 0003428  74.2601 285.8769 15.56722966  7270
SILVERSAT               
1 66909U 98067XV  26017.85590617  .00082147  00000+0  10914-2 0  9995
2 66909  51.6304 322.2122 0003736  82.9581 277.1836 15.57482003  7238
1998-067XW              
1 66910U 98067XW  26018.24330258  .00071786  00000+0  97022-3 0  9997
2 66910  51.6297 320.2962 0002316  62.6409 297.4818 15.57085533  7296
1998-067XX              
1 66911U 98067XX  26018.09715504  .00094423  00000+0  12107-2 0  9995
2 66911  51.6297 320.8210 0002498  84.0306 276.0971 15.58372188  7260
1998-067XY              
1 66912U 98067XY  26018.53086047  .00054943  00000+0  79684-3 0  9995
2 66912  51.6310 319.2200 0003282  60.9678 299.1641 15.55289299  7329
