CCSDS_OMM_VERS = 2.0
CREATION_DATE  = 
ORIGINATOR     = 

OBJECT_NAME    = DUPLEX
OBJECT_ID      = 1998-067XS
CENTER_NAME    = EARTH
REF_FRAME      = TEME
TIME_SYSTEM    = UTC
MEAN_ELEMENT_THEORY = SGP/SGP4

EPOCH          = 2026-01-18T15:12:29.993472
MEAN_MOTION    = 15.52643579
ECCENTRICITY   = .00020607
INCLINATION    = 51.6322
RA_OF_ASC_NODE = 319.1567
ARG_OF_PERICENTER = 29.5858
MEAN_ANOMALY   = 330.5248

EPHEMERIS_TYPE = 0
CLASSIFICATION_TYPE = U
NORAD_CAT_ID   = 66906
ELEMENT_SET_NO = 999
REV_AT_EPOCH   = 734
BSTAR          = .37633185E-3
MEAN_MOTION_DOT = .23204E-3
MEAN_MOTION_DDOT = 0

CCSDS_OMM_VERS = 2.0
CREATION_DATE  = 
ORIGINATOR     = 

OBJECT_NAME    = 1998-067XT
OBJECT_ID      = 1998-067XT
CENTER_NAME    = EARTH
REF_FRAME      = TEME
TIME_SYSTEM    = UTC
MEAN_ELEMENT_THEORY = SGP/SGP4

EPOCH          = 2026-01-18T15:17:16.819872
MEAN_MOTION    = 15.56868945
ECCENTRICITY   = .00035256
INCLINATION    = 51.6306
RA_OF_ASC_NODE = 318.4294
ARG_OF_PERICENTER = 81.7218
MEAN_ANOMALY   = 278.4173

EPHEMERIS_TYPE = 0
CLASSIFICATION_TYPE = U
NORAD_CAT_ID   = 66907
ELEMENT_SET_NO = 999
REV_AT_EPOCH   = 735
BSTAR          = .10064913E-2
MEAN_MOTION_DOT = .73915E-3
MEAN_MOTION_DDOT = 0

CCSDS_OMM_VERS = 2.0
CREATION_DATE  = 
ORIGINATOR     = 

OBJECT_NAME    = 1998-067XU
OBJECT_ID      = 1998-067XU
CENTER_NAME    = EARTH
REF_FRAME      = TEME
TIME_SYSTEM    = UTC
MEAN_ELEMENT_THEORY = SGP/SGP4

EPOCH          = 2026-01-18T02:56:39.852672
MEAN_MOTION    = 15.56722966
ECCENTRICITY   = .00034288
INCLINATION    = 51.6306
RA_OF_ASC_NODE = 320.9926
ARG_OF_PERICENTER = 74.2601
MEAN_ANOMALY   = 285.8769

EPHEMERIS_TYPE = 0
CLASSIFICATION_TYPE = U
NORAD_CAT_ID   = 66908
ELEMENT_SET_NO = 999
REV_AT_EPOCH   = 727
BSTAR          = .9791961E-3
MEAN_MOTION_DOT = .71482E-3
MEAN_MOTION_DDOT = 0

CCSDS_OMM_VERS = 2.0
CREATION_DATE  = 
ORIGINATOR     = 

OBJECT_NAME    = SILVERSAT
OBJECT_ID      = 1998-067XV
CENTER_NAME    = EARTH
REF_FRAME      = TEME
TIME_SYSTEM    = UTC
MEAN_ELEMENT_THEORY = SGP/SGP4

EPOCH          = 2026-01-17T20:32:30.293088
MEAN_MOTION    = 15.57482003
ECCENTRICITY   = .0003736
INCLINATION    = 51.6304
RA_OF_ASC_NODE = 322.2122
ARG_OF_PERICENTER = 82.9581
MEAN_ANOMALY   = 277.1836

EPHEMERIS_TYPE = 0
CLASSIFICATION_TYPE = U
NORAD_CAT_ID   = 66909
ELEMENT_SET_NO = 999
REV_AT_EPOCH   = 723
BSTAR          = .10914263E-2
MEAN_MOTION_DOT = .82147E-3
MEAN_MOTION_DDOT = 0

CCSDS_OMM_VERS = 2.0
CREATION_DATE  = 
ORIGINATOR     = 

OBJECT_NAME    = 1998-067XW
OBJECT_ID      = 1998-067XW
CENTER_NAME    = EARTH
REF_FRAME      = TEME
TIME_SYSTEM    = UTC
MEAN_ELEMENT_THEORY = SGP/SGP4

EPOCH          = 2026-01-18T05:50:21.342912
MEAN_MOTION    = 15.57085533
ECCENTRICITY   = .00023167
INCLINATION    = 51.6297
RA_OF_ASC_NODE = 320.2962
ARG_OF_PERICENTER = 62.6409
MEAN_ANOMALY   = 297.4818

EPHEMERIS_TYPE = 0
CLASSIFICATION_TYPE = U
NORAD_CAT_ID   = 66910
ELEMENT_SET_NO = 999
REV_AT_EPOCH   = 729
BSTAR          = .97022006E-3
MEAN_MOTION_DOT = .71786E-3
MEAN_MOTION_DDOT = 0

CCSDS_OMM_VERS = 2.0
CREATION_DATE  = 
ORIGINATOR     = 

OBJECT_NAME    = 1998-067XX
OBJECT_ID      = 1998-067XX
CENTER_NAME    = EARTH
REF_FRAME      = TEME
TIME_SYSTEM    = UTC
MEAN_ELEMENT_THEORY = SGP/SGP4

EPOCH          = 2026-01-18T02:19:54.195456
MEAN_MOTION    = 15.58372188
ECCENTRICITY   = .00024985
INCLINATION    = 51.6297
RA_OF_ASC_NODE = 320.8210
ARG_OF_PERICENTER = 84.0306
MEAN_ANOMALY   = 276.0971

EPHEMERIS_TYPE = 0
CLASSIFICATION_TYPE = U
NORAD_CAT_ID   = 66911
ELEMENT_SET_NO = 999
REV_AT_EPOCH   = 726
BSTAR          = .12106822E-2
MEAN_MOTION_DOT = .94423E-3
MEAN_MOTION_DDOT = 0

CCSDS_OMM_VERS = 2.0
CREATION_DATE  = 
ORIGINATOR     = 

OBJECT_NAME    = 1998-067XY
OBJECT_ID      = 1998-067XY
CENTER_NAME    = EARTH
REF_FRAME      = TEME
TIME_SYSTEM    = UTC
MEAN_ELEMENT_THEORY = SGP/SGP4

EPOCH          = 2026-01-18T12:44:26.344608
MEAN_MOTION    = 15.55289299
ECCENTRICITY   = .00032827
INCLINATION    = 51.6310
RA_OF_ASC_NODE = 319.2200
ARG_OF_PERICENTER = 60.9678
MEAN_ANOMALY   = 299.1641

EPHEMERIS_TYPE = 0
CLASSIFICATION_TYPE = U
NORAD_CAT_ID   = 66912
ELEMENT_SET_NO = 999
REV_AT_EPOCH   = 732
BSTAR          = .7968359E-3
MEAN_MOTION_DOT = .54943E-3
MEAN_MOTION_DDOT = 0

